INMARSAT 4-F2 (SOUTHPA*)
1 28899U 05044A   26116.73632355 -.00000270  00000+0  00000+0 0  9997
2 28899   5.0308  43.7600 0002737 349.2893 230.2135  1.00270978 75003
GSAT-8 (GAGAN/PRN 127)  
1 37605U 11022A   26116.76572685  .00000075  00000+0  00000+0 0  9999
2 37605   2.0001  82.4175 0004743 227.2999 235.7789  1.00270458 52703
LUCH 5A (SDCM/PRN 140)  
1 37951U 11074B   26116.94093641 -.00000054  00000+0  00000+0 0  9998
2 37951   8.6267  74.5459 0002739 304.9755 341.0773  1.00272965 52536
SES-5 (EGNOS/PRN 136)   
1 38652U 12036A   26116.70892005  .00000022  00000+0  00000+0 0  9995
2 38652   0.0594 300.4218 0002088  91.2198  83.2535  1.00271509 43941
GSAT-10 (GAGAN/PRN 128) 
1 38779U 12051B   26116.93826096 -.00000175  00000+0  00000+0 0  9994
2 38779   0.0228 263.3537 0007008 178.5539 193.7649  1.00270013 49589
LUCH 5B (SDCM/PRN 125)  
1 38977U 12061A   26116.63334639 -.00000144  00000+0  00000+0 0  9995
2 38977  10.3758  50.3860 0001746 214.4280 161.5503  1.00271594 49093
ASTRA 5B (EGNOS/PRN 123)
1 39617U 14011B   26116.93257965  .00000126  00000+0  00000+0 0  9992
2 39617   0.0673 307.7822 0002679  65.9397 200.4278  1.00269811 44151
LUCH 5V (SDCM/PRN 141)  
1 39727U 14023A   26116.94060097 -.00000276  00000+0  00000+0 0  9993
2 39727   5.0095  70.2469 0002252 339.2752 238.7943  1.00271825 43840
GSAT-15 (GAGAN/PRN 139) 
1 41028U 15065A   26116.94261192 -.00000269  00000+0  00000+0 0  9998
2 41028   0.0682 257.0638 0003727 145.1368 245.5890  1.00271973 38285
EUTELSAT 117 WEST B (W*)
1 41589U 16038B   26116.89856748 -.00000023  00000+0  00000+0 0  9990
2 41589   0.0123  95.7003 0000042  22.0292 303.6604  1.00271972 36147
SES-15 (WAAS/PRN 133)   
1 42709U 17026A   26116.93093403  .00000049  00000+0  00000+0 0  9996
2 42709   0.0241 326.4455 0000647  44.7047  49.7564  1.00269945  6910
QZS-2 (QZSS/PRN 194)    
1 42738U 17028A   26116.23428738 -.00000266  00000+0  00000+0 0  9998
2 42738  39.5095 243.9120 0740318 270.8047 281.9812  1.00247520  7109
QZS-3 (QZSS/PRN 199)    
1 42917U 17048A   26116.94701434 -.00000359  00000+0  00000+0 0  9997
2 42917   0.0513 181.4635 0001354 202.7307 298.7072  1.00270919 31745
QZS-4 (QZSS/PRN 195)    
1 42965U 17062A   26112.66690654 -.00000326  00000+0  00000+0 0  9996
2 42965  40.1416 344.1915 0746625 270.8161 335.9811  1.00266456 31246
BEIDOU-3 G1 (PRN 130)   
1 43683U 18085A   26116.88218741 -.00000118  00000+0  00000+0 0  9990
2 43683   2.9463  98.7324 0007381 333.4211 260.2406  1.00265471 27543
EUTELSAT 5 WEST B (EGN*)
1 44624U 19067A   26116.92084089 -.00000053  00000+0  00000+0 0  9996
2 44624   0.0694  11.1836 0003180  24.8675 145.3604  1.00271516 23927
BEIDOU-3 G2 (PRN 144)   
1 45344U 20017A   26116.95983383 -.00000149  00000+0  00000+0 0  9997
2 45344   2.7633  46.5357 0002544 348.1977 245.8021  1.00271430 22742
BEIDOU-3 G3 (PRN 143)   
1 45807U 20040A   26116.94372098 -.00000363  00000+0  00000+0 0  9999
2 45807   2.3235  67.2985 0003756 329.8075 268.1123  1.00270304 21556
GALAXY 30 (WAAS/PRN 135)
1 46114U 20056C   26116.68317993  .00000000  00000+0  00000+0 0  9999
2 46114   0.0129 235.3307 0002479 173.0121 287.2804  1.00271187 20774
QZS-1R (QZSS/PRN 196)   
1 49336U 21096A   26116.78683814 -.00000235  00000+0  00000+0 0  9993
2 49336  37.3595  80.3391 0751378 270.8456 282.5590  1.00273034 16497
QZS-6 (QZSS/PRN 200)    
1 62876U 25023A   26116.94261192  .00000000  00000+0  00000+0 0  9999
2 62876   0.0133  72.3430 0002701 332.9496 239.4689  1.00271527  4441
